[{"OBJECT_NAME":"STARLINK-5872","OBJECT_ID":"2023-094Q","EPOCH":"2026-03-09T22:00:01.999584","MEAN_MOTION":15.11376105,"ECCENTRICITY":0.00015753,"INCLINATION":43.0004,"RA_OF_ASC_NODE":28.4509,"ARG_OF_PERICENTER":248.1924,"MEAN_ANOMALY":38.1454,"EPHEMERIS_TYPE":0,"CLASSIFICATION_TYPE":"U","NORAD_CAT_ID":57232,"ELEMENT_SET_NO":999,"REV_AT_EPOCH":537,"BSTAR":0.0043979338,"MEAN_MOTION_DOT":0.00076111,"MEAN_MOTION_DDOT":0},{"OBJECT_NAME":"COSMOS 397 DEB","OBJECT_ID":"1971-015AP","EPOCH":"2026-03-09T23:21:39.504096","MEAN_MOTION":15.2848821,"ECCENTRICITY":0.00875373,"INCLINATION":65.5189,"RA_OF_ASC_NODE":36.1077,"ARG_OF_PERICENTER":68.9592,"MEAN_ANOMALY":292.0879,"EPHEMERIS_TYPE":0,"CLASSIFICATION_TYPE":"U","NORAD_CAT_ID":5192,"ELEMENT_SET_NO":999,"REV_AT_EPOCH":75637,"BSTAR":0.0038413279,"MEAN_MOTION_DOT":0.00121672,"MEAN_MOTION_DDOT":0}]
